E-KAGAKU-1              
1 65943U 98067XQ  26071.30203425  .00242002  00000+0  11646-2 0  9991
2 65943  51.6239  43.8096 0005792  91.6608 268.5057 15.81386675 23916
HRC MONOBLOCK CAMERA    
1 66052U 98067XR  26071.32283851  .00058301  00000+0  64285-3 0  9991
2 66052  51.6279  52.2408 0003793 104.7218 255.4196 15.62517585 22806
HTV-X1                  
1 66174U 25241A   26071.57242695  .00007736  00000+0  33943-3 0  9991
2 66174  51.6354  59.1341 0006405 182.0421 178.0531 15.22859995 21391
SZ-21 MODULE            
1 66515U 25246C   26071.36538052  .00041043  00000+0  34954-3 0  9999
2 66515  41.4732 186.8865 0001165 305.7907  54.2827 15.68778467 18491
SHENZHOU-22             
1 66645U 25272A   26071.59506005  .00025773  00000+0  30291-3 0  9992
2 66645  41.4662 190.4821 0006727 289.9358  70.0756 15.60823490267528
SOYUZ-MS 28             
1 66664U 25275A   26071.41729871  .00009444  00000+0  18173-3 0  9997
2 66664  51.6324  58.8700 0007975 184.3112 175.7809 15.48601092554521
DUPLEX                  
1 66906U 98067XS  26071.21883993  .00037736  00000+0  52838-3 0  9990
2 66906  51.6293  56.7987 0002554 123.1889 236.9348 15.56413150 15524
ISS OBJECT XT           
1 66907U 98067XT  26071.32038584  .00181210  00000+0  14377-2 0  9993
2 66907  51.6249  52.2093 0004714  95.5605 264.5930 15.70168045 15590
ISS OBJECT XU           
1 66908U 98067XU  26071.19109037  .00173902  00000+0  13761-2 0  9996
2 66908  51.6251  52.8423 0004849  95.5022 264.6529 15.70253790 15574
SILVERSAT               
1 66909U 98067XV  26071.18756588  .00230471  00000+0  15879-2 0  9992
2 66909  51.6249  52.0679 0005428  93.6368 266.5252 15.73352402 15581
ISS OBJECT XW           
1 66910U 98067XW  26071.31642978  .00160368  00000+0  13157-2 0  9990
2 66910  51.6247  52.1756 0005348 102.3551 257.8045 15.69426524 15597
ISS OBJECT XX           
1 66911U 98067XX  26071.49624841  .00293883  00000+0  17140-2 0  9994
2 66911  51.6223  49.6058 0006974 102.6102 257.5678 15.76985712 15630
